[
  {
    "OBJECT_NAME": "STARLINK-32284",
    "OBJECT_ID": "24158R",
    "EPOCH": "2025-11-11T02:25:51.494880",
    "MEAN_MOTION": 15.30187664,
    "ECCENTRICITY": 0.0001265,
    "INCLINATION": 53.1618,
    "RA_OF_ASC_NODE": 256.4513,
    "ARG_OF_PERICENTER": 97.8185,
    "MEAN_ANOMALY": 262.296,
    "EPHEMERIS_TYPE": 0,
    "CLASSIFICATION_TYPE": "U",
    "NORAD_CAT_ID": 61005,
    "ELEMENT_SET_NO": 999,
    "REV_AT_EPOCH": 6742,
    "BSTAR": 0.0,
    "MEAN_MOTION_DOT": -6.57e-06,
    "MEAN_MOTION_DDOT": 0.0,
    "TLE_LINE1": "1 61005U 24158R   25315.10129045 -.00000657  00000+0 -10063-4 0  9993",
    "TLE_LINE2": "2 61005  53.1618 256.4513 0001265  97.8185 262.2960 15.30187664 67423",
    "COMMENT": "Grouped by shell and plane from TLE"
  },
  {
    "OBJECT_NAME": "STARLINK-32282",
    "OBJECT_ID": "24158S",
    "EPOCH": "2025-11-11T05:09:38.233440",
    "MEAN_MOTION": 15.3019808,
    "ECCENTRICITY": 0.0001375,
    "INCLINATION": 53.1627,
    "RA_OF_ASC_NODE": 255.7358,
    "ARG_OF_PERICENTER": 100.2434,
    "MEAN_ANOMALY": 259.8722,
    "EPHEMERIS_TYPE": 0,
    "CLASSIFICATION_TYPE": "U",
    "NORAD_CAT_ID": 61006,
    "ELEMENT_SET_NO": 999,
    "REV_AT_EPOCH": 6751,
    "BSTAR": 7.8205e-05,
    "MEAN_MOTION_DOT": 1.957e-05,
    "MEAN_MOTION_DDOT": 0.0,
    "TLE_LINE1": "1 61006U 24158S   25315.21502585  .00001957  00000+0  78205-4 0  9994",
    "TLE_LINE2": "2 61006  53.1627 255.7358 0001375 100.2434 259.8722 15.30198080 67513",
    "COMMENT": "Grouped by shell and plane from TLE"
  },
  {
    "OBJECT_NAME": "STARLINK-32340",
    "OBJECT_ID": "24158U",
    "EPOCH": "2025-11-11T02:41:01.381056",
    "MEAN_MOTION": 15.30209396,
    "ECCENTRICITY": 0.0001128,
    "INCLINATION": 53.1599,
    "RA_OF_ASC_NODE": 256.4408,
    "ARG_OF_PERICENTER": 93.9936,
    "MEAN_ANOMALY": 266.1194,
    "EPHEMERIS_TYPE": 0,
    "CLASSIFICATION_TYPE": "U",
    "NORAD_CAT_ID": 61008,
    "ELEMENT_SET_NO": 999,
    "REV_AT_EPOCH": 6742,
    "BSTAR": 0.00027945,
    "MEAN_MOTION_DOT": 7.929e-05,
    "MEAN_MOTION_DDOT": 0.0,
    "TLE_LINE1": "1 61008U 24158U   25315.11182154  .00007929  00000+0  27945-3 0  9990",
    "TLE_LINE2": "2 61008  53.1599 256.4408 0001128  93.9936 266.1194 15.30209396 67425",
    "COMMENT": "Grouped by shell and plane from TLE"
  },
  {
    "OBJECT_NAME": "STARLINK-32347",
    "OBJECT_ID": "24158W",
    "EPOCH": "2025-11-11T05:14:11.555520",
    "MEAN_MOTION": 15.301974,
    "ECCENTRICITY": 0.0001133,
    "INCLINATION": 53.1608,
    "RA_OF_ASC_NODE": 255.7552,
    "ARG_OF_PERICENTER": 93.8097,
    "MEAN_ANOMALY": 266.3034,
    "EPHEMERIS_TYPE": 0,
    "CLASSIFICATION_TYPE": "U",
    "NORAD_CAT_ID": 61010,
    "ELEMENT_SET_NO": 999,
    "REV_AT_EPOCH": 6744,
    "BSTAR": 4.0728e-05,
    "MEAN_MOTION_DOT": 8.47e-06,
    "MEAN_MOTION_DDOT": 0.0,
    "TLE_LINE1": "1 61010U 24158W   25315.21818930  .00000847  00000+0  40728-4 0  9999",
    "TLE_LINE2": "2 61010  53.1608 255.7552 0001133  93.8097 266.3034 15.30197400 67443",
    "COMMENT": "Grouped by shell and plane from TLE"
  },
  {
    "OBJECT_NAME": "STARLINK-32353",
    "OBJECT_ID": "24187P",
    "EPOCH": "2025-11-11T03:17:16.121760",
    "MEAN_MOTION": 15.30202839,
    "ECCENTRICITY": 0.0001225,
    "INCLINATION": 53.1581,
    "RA_OF_ASC_NODE": 255.6254,
    "ARG_OF_PERICENTER": 91.1795,
    "MEAN_ANOMALY": 268.9346,
    "EPHEMERIS_TYPE": 0,
    "CLASSIFICATION_TYPE": "U",
    "NORAD_CAT_ID": 61587,
    "ELEMENT_SET_NO": 999,
    "REV_AT_EPOCH": 6087,
    "BSTAR": 0.0009647200000000001,
    "MEAN_MOTION_DOT": 0.00028325,
    "MEAN_MOTION_DDOT": 0.0,
    "TLE_LINE1": "1 61587U 24187P   25315.13699215  .00028325  00000+0  96472-3 0  9991",
    "TLE_LINE2": "2 61587  53.1581 255.6254 0001225  91.1795 268.9346 15.30202839 60875",
    "COMMENT": "Grouped by shell and plane from TLE"
  },
  {
    "OBJECT_NAME": "STARLINK-32325",
    "OBJECT_ID": "24187Q",
    "EPOCH": "2025-11-11T03:44:38.190912",
    "MEAN_MOTION": 15.30186144,
    "ECCENTRICITY": 0.0001474,
    "INCLINATION": 53.1628,
    "RA_OF_ASC_NODE": 255.7525,
    "ARG_OF_PERICENTER": 88.472,
    "MEAN_ANOMALY": 271.6449,
    "EPHEMERIS_TYPE": 0,
    "CLASSIFICATION_TYPE": "U",
    "NORAD_CAT_ID": 61588,
    "ELEMENT_SET_NO": 999,
    "REV_AT_EPOCH": 6093,
    "BSTAR": 5.321000000000001e-05,
    "MEAN_MOTION_DOT": 1.216e-05,
    "MEAN_MOTION_DDOT": 0.0,
    "TLE_LINE1": "1 61588U 24187Q   25315.15599758  .00001216  00000+0  53210-4 0  9999",
    "TLE_LINE2": "2 61588  53.1628 255.7525 0001474  88.4720 271.6449 15.30186144 60935",
    "COMMENT": "Grouped by shell and plane from TLE"
  },
  {
    "OBJECT_NAME": "STARLINK-32413",
    "OBJECT_ID": "24187S",
    "EPOCH": "2025-11-11T05:42:59.478624",
    "MEAN_MOTION": 15.30193003,
    "ECCENTRICITY": 0.0001376,
    "INCLINATION": 53.1608,
    "RA_OF_ASC_NODE": 255.5409,
    "ARG_OF_PERICENTER": 79.4888,
    "MEAN_ANOMALY": 280.6267,
    "EPHEMERIS_TYPE": 0,
    "CLASSIFICATION_TYPE": "U",
    "NORAD_CAT_ID": 61590,
    "ELEMENT_SET_NO": 999,
    "REV_AT_EPOCH": 6094,
    "BSTAR": 0.00011629000000000001,
    "MEAN_MOTION_DOT": 3.086e-05,
    "MEAN_MOTION_DDOT": 0.0,
    "TLE_LINE1": "1 61590U 24187S   25315.23818841  .00003086  00000+0  11629-3 0  9992",
    "TLE_LINE2": "2 61590  53.1608 255.5409 0001376  79.4888 280.6267 15.30193003 60942",
    "COMMENT": "Grouped by shell and plane from TLE"
  },
  {
    "OBJECT_NAME": "STARLINK-32397",
    "OBJECT_ID": "24187V",
    "EPOCH": "2025-11-11T05:25:30.795168",
    "MEAN_MOTION": 15.30193372,
    "ECCENTRICITY": 0.0001255,
    "INCLINATION": 53.1616,
    "RA_OF_ASC_NODE": 253.3391,
    "ARG_OF_PERICENTER": 99.4088,
    "MEAN_ANOMALY": 260.7054,
    "EPHEMERIS_TYPE": 0,
    "CLASSIFICATION_TYPE": "U",
    "NORAD_CAT_ID": 61593,
    "ELEMENT_SET_NO": 999,
    "REV_AT_EPOCH": 6097,
    "BSTAR": 7.7778e-05,
    "MEAN_MOTION_DOT": 1.945e-05,
    "MEAN_MOTION_DDOT": 0.0,
    "TLE_LINE1": "1 61593U 24187V   25315.22605087  .00001945  00000+0  77778-4 0  9990",
    "TLE_LINE2": "2 61593  53.1616 253.3391 0001255  99.4088 260.7054 15.30193372 60975",
    "COMMENT": "Grouped by shell and plane from TLE"
  },
  {
    "OBJECT_NAME": "STARLINK-32540",
    "OBJECT_ID": "24196S",
    "EPOCH": "2025-11-11T01:57:00.094176",
    "MEAN_MOTION": 15.30199074,
    "ECCENTRICITY": 0.0001353,
    "INCLINATION": 53.1626,
    "RA_OF_ASC_NODE": 256.4545,
    "ARG_OF_PERICENTER": 92.1427,
    "MEAN_ANOMALY": 267.9729,
    "EPHEMERIS_TYPE": 0,
    "CLASSIFICATION_TYPE": "U",
    "NORAD_CAT_ID": 61723,
    "ELEMENT_SET_NO": 999,
    "REV_AT_EPOCH": 5949,
    "BSTAR": 8.198e-05,
    "MEAN_MOTION_DOT": 2.069e-05,
    "MEAN_MOTION_DDOT": 0.0,
    "TLE_LINE1": "1 61723U 24196S   25315.08125109  .00002069  00000+0  81980-4 0  9999",
    "TLE_LINE2": "2 61723  53.1626 256.4545 0001353  92.1427 267.9729 15.30199074 59490",
    "COMMENT": "Grouped by shell and plane from TLE"
  },
  {
    "OBJECT_NAME": "STARLINK-32283",
    "OBJECT_ID": "24249S",
    "EPOCH": "2025-11-11T04:51:03.410784",
    "MEAN_MOTION": 15.27566925,
    "ECCENTRICITY": 0.0002003,
    "INCLINATION": 43.0049,
    "RA_OF_ASC_NODE": 259.664,
    "ARG_OF_PERICENTER": 256.931,
    "MEAN_ANOMALY": 103.1318,
    "EPHEMERIS_TYPE": 0,
    "CLASSIFICATION_TYPE": "U",
    "NORAD_CAT_ID": 62425,
    "ELEMENT_SET_NO": 999,
    "REV_AT_EPOCH": 4973,
    "BSTAR": 0.0010209,
    "MEAN_MOTION_DOT": 0.00027927,
    "MEAN_MOTION_DDOT": 0.0,
    "TLE_LINE1": "1 62425U 24249S   25315.20212281  .00027927  00000+0  10209-2 0  9994",
    "TLE_LINE2": "2 62425  43.0049 259.6640 0002003 256.9310 103.1318 15.27566925 49732",
    "COMMENT": "Grouped by shell and plane from TLE"
  },
  {
    "OBJECT_NAME": "STARLINK-33734",
    "OBJECT_ID": "25063E",
    "EPOCH": "2025-11-11T05:46:36.020352",
    "MEAN_MOTION": 15.30218788,
    "ECCENTRICITY": 8.71e-05,
    "INCLINATION": 53.159,
    "RA_OF_ASC_NODE": 252.6241,
    "ARG_OF_PERICENTER": 104.0782,
    "MEAN_ANOMALY": 256.0316,
    "EPHEMERIS_TYPE": 0,
    "CLASSIFICATION_TYPE": "U",
    "NORAD_CAT_ID": 63367,
    "ELEMENT_SET_NO": 999,
    "REV_AT_EPOCH": 3643,
    "BSTAR": 0.001935,
    "MEAN_MOTION_DOT": 0.00057427,
    "MEAN_MOTION_DDOT": 0.0,
    "TLE_LINE1": "1 63367U 25063E   25315.24069468  .00057427  00000+0  19350-2 0  9990",
    "TLE_LINE2": "2 63367  53.1590 252.6241 0000871 104.0782 256.0316 15.30218788 36432",
    "COMMENT": "Grouped by shell and plane from TLE"
  },
  {
    "OBJECT_NAME": "STARLINK-33539",
    "OBJECT_ID": "25063P",
    "EPOCH": "2025-11-11T05:57:14.364288",
    "MEAN_MOTION": 15.30228996,
    "ECCENTRICITY": 0.0001259,
    "INCLINATION": 53.1582,
    "RA_OF_ASC_NODE": 252.6719,
    "ARG_OF_PERICENTER": 86.7196,
    "MEAN_ANOMALY": 273.3949,
    "EPHEMERIS_TYPE": 0,
    "CLASSIFICATION_TYPE": "U",
    "NORAD_CAT_ID": 63376,
    "ELEMENT_SET_NO": 999,
    "REV_AT_EPOCH": 3643,
    "BSTAR": 0.0018803000000000001,
    "MEAN_MOTION_DOT": 0.000558,
    "MEAN_MOTION_DDOT": 0.0,
    "TLE_LINE1": "1 63376U 25063P   25315.24808292  .00055800  00000+0  18803-2 0  9991",
    "TLE_LINE2": "2 63376  53.1582 252.6719 0001259  86.7196 273.3949 15.30228996 36435",
    "COMMENT": "Grouped by shell and plane from TLE"
  },
  {
    "OBJECT_NAME": "STARLINK-33748",
    "OBJECT_ID": "25063W",
    "EPOCH": "2025-11-11T05:42:12.472704",
    "MEAN_MOTION": 15.30211373,
    "ECCENTRICITY": 0.0001262,
    "INCLINATION": 53.1595,
    "RA_OF_ASC_NODE": 253.3262,
    "ARG_OF_PERICENTER": 88.1976,
    "MEAN_ANOMALY": 271.9169,
    "EPHEMERIS_TYPE": 0,
    "CLASSIFICATION_TYPE": "U",
    "NORAD_CAT_ID": 63383,
    "ELEMENT_SET_NO": 999,
    "REV_AT_EPOCH": 3647,
    "BSTAR": 0.0020066,
    "MEAN_MOTION_DOT": 0.0005957,
    "MEAN_MOTION_DDOT": 0.0,
    "TLE_LINE1": "1 63383U 25063W   25315.23764436  .00059570  00000+0  20066-2 0  9991",
    "TLE_LINE2": "2 63383  53.1595 253.3262 0001262  88.1976 271.9169 15.30211373 36477",
    "COMMENT": "Grouped by shell and plane from TLE"
  }
]